NORAD_CAT_ID,OBJECT_NAME,OBJECT_TYPE,EPOCH,MEAN_MOTION,ECCENTRICITY,INCLINATION,RA_OF_ASC_NODE,ARG_OF_PERICENTER,MEAN_ANOMALY,BSTAR,MEAN_MOTION_DOT,MEAN_MOTION_DDOT,TLE_LINE0,TLE_LINE1,TLE_LINE2,SEMIMAJOR_AXIS,PERIOD,APOGEE,PERIGEE,DECAYED
52657.0,STARLINK-4084,PAYLOAD,2023-10-15 06:55:09,15.07208561,7.34e-05,53.2168,128.5672,95.5429,264.5646,9.2206e-05,1.121e-05,0.0,0 STARLINK-4084,1 52657U 22053B   23288.28830005  .00001121  00000-0  92206-4 0  9994,2 52657  53.2168 128.5672 0000734  95.5429 264.5646 15.07208561 79106,6922.872,95.541,545.245,544.228,0.0
52657.0,STARLINK-4084,PAYLOAD,2023-10-15 13:17:06,15.07201378,0.0001225,53.2157,127.3776,101.1892,258.9237,5.1868e-05,5.06e-06,0.0,0 STARLINK-4084,1 52657U 22053B   23288.55355308  .00000506  00000-0  51868-4 0  9997,2 52657  53.2157 127.3776 0001225 101.1892 258.9237 15.07201378 79146,6922.894,95.541,545.607,543.91,0.0
52657.0,STARLINK-4084,PAYLOAD,2023-10-15 19:39:04,15.0720941,0.0001198,53.2148,126.1927,92.0968,268.0161,0.00029258,4.174e-05,0.0,0 STARLINK-4084,1 52657U 22053B   23288.81879911  .00004174  00000-0  29258-3 0  9999,2 52657  53.2148 126.1927 0001198  92.0968 268.0161 15.07209410 79189,6922.869,95.541,545.563,543.905,0.0
52657.0,STARLINK-4084,PAYLOAD,2023-10-16 16:20:25,15.07208591,0.0001233,53.2147,122.3318,87.2577,272.8555,0.00035202,5.08e-05,0.0,0 STARLINK-4084,1 52657U 22053B   23289.68085594  .00005080  00000-0  35202-3 0  9994,2 52657  53.2147 122.3318 0001233  87.2577 272.8555 15.07208591 79316,6922.871,95.541,545.59,543.883,0.0
52657.0,STARLINK-4084,PAYLOAD,2023-10-17 19:23:44,15.07212202,0.000127,53.2144,117.2836,87.4007,272.713,0.00024597,3.463e-05,0.0,0 STARLINK-4084,1 52657U 22053B   23290.80815590  .00003463  00000-0  24597-3 0  9995,2 52657  53.2144 117.2836 0001270  87.4007 272.7130 15.07212202 79482,6922.86,95.541,545.605,543.846,0.0
52657.0,STARLINK-4084,PAYLOAD,2023-10-18 11:18:38,15.07206692,0.0001281,53.2139,114.3159,83.5088,276.6049,0.00027562,3.915e-05,0.0,0 STARLINK-4084,1 52657U 22053B   23291.47127574  .00003915  00000-0  27562-3 0  9994,2 52657  53.2139 114.3159 0001281  83.5088 276.6049 15.07206692 79589,6922.877,95.541,545.629,543.855,0.0
52657.0,STARLINK-4084,PAYLOAD,2023-10-19 12:46:27,15.07210183,0.0001549,53.2151,109.5622,85.7996,274.3172,-5.1711e-05,-1.071e-05,0.0,0 STARLINK-4084,1 52657U 22053B   23292.53226396 -.00001071  00000-0 -51711-4 0  9991,2 52657  53.2151 109.5622 0001549  85.7996 274.3172 15.07210183 79743,6922.867,95.541,545.804,543.659,0.0
52657.0,STARLINK-4084,PAYLOAD,2023-10-19 20:43:54,15.07212598,0.0001265,53.2158,108.0784,85.0289,275.0846,0.0001438,1.907e-05,0.0,0 STARLINK-4084,1 52657U 22053B   23292.86382110  .00001907  00000-0  14380-3 0  9990,2 52657  53.2158 108.0784 0001265  85.0289 275.0846 15.07212598 79799,6922.859,95.541,545.6,543.848,0.0
52657.0,STARLINK-4084,PAYLOAD,2023-10-19 23:54:52,15.07214355,0.0001288,53.2161,107.484,86.6742,273.4396,0.00017429,2.371e-05,0.0,0 STARLINK-4084,1 52657U 22053B   23292.99644355  .00002371  00000-0  17429-3 0  9999,2 52657  53.2161 107.4840 0001288  86.6742 273.4396 15.07214355 79813,6922.854,95.54,545.61,543.827,0.0
52657.0,STARLINK-4084,PAYLOAD,2023-10-20 20:36:15,15.07198057,0.0001385,53.2165,103.624,87.8608,272.2542,-5.6067e-05,-1.137e-05,0.0,0 STARLINK-4084,1 52657U 22053B   23293.85850844 -.00001137  00000-0 -56067-4 0  9990,2 52657  53.2165 103.6240 0001385  87.8608 272.2542 15.07198057 79945,6922.904,95.542,545.728,543.81,0.0
52657.0,STARLINK-4084,PAYLOAD,2023-10-21 18:53:05,15.07213275,0.0001348,53.2167,99.4669,86.2102,273.9044,0.00022591,3.158e-05,0.0,0 STARLINK-4084,1 52657U 22053B   23294.78686894  .00003158  00000-0  22591-3 0  9992,2 52657  53.2167  99.4669 0001348  86.2102 273.9044 15.07213275 80087,6922.857,95.541,545.655,543.789,0.0
52657.0,STARLINK-4084,PAYLOAD,2023-10-21 20:28:34,15.07215487,0.0001348,53.2167,99.1699,85.9101,274.2045,0.00023206,3.252e-05,0.0,0 STARLINK-4084,1 52657U 22053B   23294.85317942  .00003252  00000-0  23206-3 0  9994,2 52657  53.2167  99.1699 0001348  85.9101 274.2045 15.07215487 80095,6922.85,95.54,545.649,543.782,0.0
52657.0,STARLINK-4084,PAYLOAD,2023-10-22 04:26:01,15.07205408,0.0001324,53.2167,97.6851,93.488,266.6263,5.4571e-05,5.47e-06,0.0,0 STARLINK-4084,1 52657U 22053B   23295.18474346  .00000547  00000-0  54571-4 0  9997,2 52657  53.2167  97.6851 0001324  93.4880 266.6263 15.07205408 80145,6922.881,95.541,545.663,543.83,0.0
52657.0,STARLINK-4084,PAYLOAD,2023-10-22 10:47:59,15.07202734,0.0001598,53.2165,96.498,89.6046,270.5128,0.00016985,2.303e-05,0.0,0 STARLINK-4084,1 52657U 22053B   23295.44999536  .00002303  00000-0  16985-3 0  9997,2 52657  53.2165  96.4980 0001598  89.6046 270.5128 15.07202734 80184,6922.889,95.541,545.861,543.648,0.0
52657.0,STARLINK-4084,PAYLOAD,2023-10-22 17:09:56,15.07202685,0.0001505,53.2162,95.3092,94.5826,265.5337,4.2244e-05,3.6e-06,0.0,0 STARLINK-4084,1 52657U 22053B   23295.71524302  .00000360  00000-0  42244-4 0  9991,2 52657  53.2162  95.3092 0001505  94.5826 265.5337 15.07202685 80228,6922.89,95.541,545.796,543.713,0.0
52657.0,STARLINK-4084,PAYLOAD,2023-10-23 12:15:48,15.07211785,0.0001419,53.216,91.7464,94.7078,265.4076,0.00012875,1.677e-05,0.0,0 STARLINK-4084,1 52657U 22053B   23296.51098132  .00001677  00000-0  12875-3 0  9995,2 52657  53.2160  91.7464 0001419  94.7078 265.4076 15.07211785 80347,6922.862,95.541,545.709,543.744,0.0
52657.0,STARLINK-4084,PAYLOAD,2023-10-23 20:13:15,15.07217102,0.000134,53.2167,90.2623,91.8891,268.2253,0.00020896,2.9e-05,0.0,0 STARLINK-4084,1 52657U 22053B   23296.84253734  .00002900  00000-0  20896-3 0  9994,2 52657  53.2167  90.2623 0001340  91.8891 268.2253 15.07217102 80391,6922.845,95.54,545.638,543.783,0.0
52657.0,STARLINK-4084,PAYLOAD,2023-10-23 21:48:44,15.07219427,0.0001331,53.2166,89.9653,92.0733,268.0411,0.00019299,2.657e-05,0.0,0 STARLINK-4084,1 52657U 22053B   23296.90884763  .00002657  00000-0  19299-3 0  9997,2 52657  53.2166  89.9653 0001331  92.0733 268.0411 15.07219427 80404,6922.838,95.54,545.625,543.782,0.0
52657.0,STARLINK-4084,PAYLOAD,2023-10-25 13:35:59,15.0719936,0.0001356,53.2171,82.5424,87.6218,272.4928,0.00013139,1.717e-05,0.0,0 STARLINK-4084,1 52657U 22053B   23298.56666648  .00001717  00000-0  13139-3 0  9994,2 52657  53.2171  82.5424 0001356  87.6218 272.4928 15.07199360 80652,6922.9,95.541,545.703,543.826,0.0
52657.0,STARLINK-4084,PAYLOAD,2023-10-26 08:41:51,15.07221031,0.0001397,53.2172,78.9788,83.6785,276.4365,0.00069741,0.00010353,0.0,0 STARLINK-4084,1 52657U 22053B   23299.36240550  .00010353  00000-0  69741-3 0  9999,2 52657  53.2172  78.9788 0001397  83.6785 276.4365 15.07221031 80778,6922.833,95.54,545.665,543.731,0.0
52657.0,STARLINK-4084,PAYLOAD,2023-10-26 13:28:19,15.07231429,0.0001404,53.2169,78.0879,82.7641,277.351,0.00088553,0.00013231,0.0,0 STARLINK-4084,1 52657U 22053B   23299.56133734  .00013231  00000-0  88553-3 0  9996,2 52657  53.2169  78.0879 0001404  82.7641 277.3510 15.07231429 80804,6922.802,95.539,545.638,543.695,0.0
52657.0,STARLINK-4084,PAYLOAD,2023-10-26 16:39:17,15.07241644,0.0001415,53.217,77.4941,81.525,278.5902,0.0011406,0.00017138,0.0,0 STARLINK-4084,1 52657U 22053B   23299.69395762  .00017138  00000-0  11406-2 0  9993,2 52657  53.2170  77.4941 0001415  81.5250 278.5902 15.07241644 80824,6922.77,95.539,545.615,543.656,0.0
52657.0,STARLINK-4084,PAYLOAD,2023-10-27 02:12:13,15.0723948,0.0001207,53.2165,75.7124,85.4619,274.651,0.00073663,0.00010957,0.0,0 STARLINK-4084,1 52657U 22053B   23300.09182273  .00010957  00000-0  73663-3 0  9997,2 52657  53.2165  75.7124 0001207  85.4619 274.6510 15.07239480 80886,6922.777,95.539,545.477,543.806,0.0
52657.0,STARLINK-4084,PAYLOAD,2023-10-27 18:07:07,15.07227921,0.0002761,53.2175,72.743,86.0848,274.0459,0.0006201,9.174e-05,0.0,0 STARLINK-4084,1 52657U 22053B   23300.75494279  .00009174  00000-0  62010-3 0  9995,2 52657  53.2175  72.7430 0002761  86.0848 274.0459 15.07227921 80985,6922.812,95.54,546.589,542.766,0.0
52657.0,STARLINK-4084,PAYLOAD,2023-10-28 02:04:33,15.07202535,0.0002279,53.2171,71.2584,76.859,283.2655,7.5729e-05,8.69e-06,0.0,0 STARLINK-4084,1 52657U 22053B   23301.08650258  .00000869  00000-0  75729-4 0  9997,2 52657  53.2171  71.2584 0002279  76.8590 283.2655 15.07202535 81031,6922.89,95.541,546.333,543.177,0.0
52657.0,STARLINK-4084,PAYLOAD,2023-10-28 14:48:28,15.07204602,0.0001332,53.2166,68.8828,80.6817,279.4325,0.0003581,5.172e-05,0.0,0 STARLINK-4084,1 52657U 22053B   23301.61700198  .00005172  00000-0  35810-3 0  9993,2 52657  53.2166  68.8828 0001332  80.6817 279.4325 15.07204602 81119,6922.884,95.541,545.671,543.827,0.0
52657.0,STARLINK-4084,PAYLOAD,2023-10-28 17:59:27,15.07201505,0.000142,53.2175,68.2901,71.7108,288.4038,0.0017748,0.00026833,0.0,0 STARLINK-4084,1 52657U 22053B   23301.74962871  .00026833  00000-0  17748-2 0  9991,2 52657  53.2175  68.2901 0001420  71.7108 288.4038 15.07201505 81139,6922.893,95.541,545.741,543.775,0.0
52657.0,STARLINK-4084,PAYLOAD,2023-10-29 14:40:48,15.07234238,0.0001382,53.2188,64.4283,81.7316,278.3832,0.0011964,0.00017989,0.0,0 STARLINK-4084,1 52657U 22053B   23302.61167598  .00017989  00000-0  11964-2 0  9997,2 52657  53.2188  64.4283 0001382  81.7316 278.3832 15.07234238 81266,6922.793,95.539,545.615,543.701,0.0
52657.0,STARLINK-4084,PAYLOAD,2023-10-29 17:51:47,15.07242727,0.0001469,53.218,63.8343,78.5097,281.6059,0.0014926,0.00022533,0.0,0 STARLINK-4084,1 52657U 22053B   23302.74429659  .00022533  00000-0  14926-2 0  9992,2 52657  53.2180  63.8343 0001469  78.5097 281.6059 15.07242727 81286,6922.767,95.539,545.649,543.615,0.0
52657.0,STARLINK-4084,PAYLOAD,2023-10-30 11:22:10,15.07204491,0.0001521,53.219,60.5689,55.877,304.2365,0.0010379,0.0001555,0.0,0 STARLINK-4084,1 52657U 22053B   23303.47373504  .00015550  00000-0  10379-2 0  9999,2 52657  53.2190  60.5689 0001521  55.8770 304.2365 15.07204491 81399,6922.884,95.541,545.802,543.696,0.0
